[{"OBJECT_NAME":"STARLINK-5730","OBJECT_ID":"2023-020AU","EPOCH":"2026-03-09T02:55:45.182208","MEAN_MOTION":15.02553555,"ECCENTRICITY":0.00012227,"INCLINATION":43.0058,"RA_OF_ASC_NODE":354.7744,"ARG_OF_PERICENTER":274.9357,"MEAN_ANOMALY":85.1346,"EPHEMERIS_TYPE":0,"CLASSIFICATION_TYPE":"U","NORAD_CAT_ID":55611,"ELEMENT_SET_NO":999,"REV_AT_EPOCH":16898,"BSTAR":-0.00043726798,"MEAN_MOTION_DOT":-6.108e-5,"MEAN_MOTION_DDOT":0},{"OBJECT_NAME":"CZ-6A DEB","OBJECT_ID":"2022-151YG","EPOCH":"2026-03-09T16:37:27.747264","MEAN_MOTION":14.90305171,"ECCENTRICITY":0.005448,"INCLINATION":98.6541,"RA_OF_ASC_NODE":144.0499,"ARG_OF_PERICENTER":194.4626,"MEAN_ANOMALY":165.5033,"EPHEMERIS_TYPE":0,"CLASSIFICATION_TYPE":"U","NORAD_CAT_ID":55534,"ELEMENT_SET_NO":999,"REV_AT_EPOCH":17121,"BSTAR":0.0042122496,"MEAN_MOTION_DOT":0.00042257,"MEAN_MOTION_DDOT":0}]
